OBJECT_NAME,OBJECT_ID,EPOCH,MEAN_MOTION,ECCENTRICITY,INCLINATION,RA_OF_ASC_NODE,ARG_OF_PERICENTER,MEAN_ANOMALY,EPHEMERIS_TYPE,CLASSIFICATION_TYPE,NORAD_CAT_ID,ELEMENT_SET_NO,REV_AT_EPOCH,BSTAR,MEAN_MOTION_DOT,MEAN_MOTION_DDOT
PAKSAT-1R,2011-042A,2026-07-10T06:56:30.760224,1.00265972,.00031749,0.7461,84.3919,348.2143,357.7869,0,U,37779,999,5470,0,.164E-5,0
SES-2,2011-049A,2026-07-10T07:00:51.777216,1.00271377,.00027223,0.1148,91.7654,19.4110,195.2588,0,U,37809,999,5419,0,-.185E-5,0
ARABSAT-5C,2011-049B,2026-07-10T06:51:23.750784,1.00269295,.00034383,0.0472,8.0239,116.8652,286.1691,0,U,37810,999,5426,0,.134E-5,0
EUTELSAT 7 WEST A,2011-051A,2026-07-10T07:59:38.527584,1.00270460,.00045703,0.0660,336.2710,149.0033,275.5785,0,U,37816,999,5410,0,-.5E-6,0
QUETZSAT 1,2011-054A,2026-07-10T07:23:38.817888,1.00272654,.0002582,0.0117,342.6642,134.2235,205.2585,0,U,37826,999,5010,0,-.231E-5,0
INTELSAT 18 (IS-18),2011-056A,2026-07-10T04:11:39.930144,1.00273145,.00017267,0.0299,278.7041,208.2780,44.0320,0,U,37834,999,5404,0,.64E-6,0
EUTELSAT 16A,2011-057A,2026-07-10T06:50:16.357920,1.00271938,.00058196,0.0375,4.8107,100.8616,301.0849,0,U,37836,999,756,0,.115E-5,0
VIASAT-1,2011-059A,2026-07-10T08:14:42.817632,1.00270107,.00020632,0.0247,28.5908,84.8120,183.4359,0,U,37843,999,4755,0,0,0
ASIASAT 7,2011-069A,2026-07-10T07:15:43.917696,1.00275331,.00012485,0.0182,25.9693,55.0287,61.6450,0,U,37933,999,4509,0,-.323E-5,0
BEIDOU-2 IGSO-5,2011-073A,2026-07-02T17:30:18.330912,1.00270596,.01145273,47.6496,271.3544,222.0502,141.5350,0,U,37948,999,5329,0,-.128E-5,0
LUCH-5A,2011-074B,2026-07-09T21:17:24.132768,1.00272587,.00025667,8.8083,73.4735,57.5000,283.1588,0,U,37951,999,5327,0,-.46E-6,0
NIGCOMSAT 1R,2011-077A,2026-07-10T05:15:08.659008,1.00274441,.00023405,0.0298,151.8812,193.1596,64.4059,0,U,38014,999,5318,0,.156E-5,0
WGS F4 (USA 233),2012-003A,2026-07-10T07:10:44.395680,1.00271613,.00009956,0.0261,36.3888,122.7529,325.1769,0,U,38070,999,4438,0,0,0
SES-4,2012-007A,2026-07-09T08:24:53.918784,1.00269202,.00023396,0.0194,57.5233,48.9346,285.0553,0,U,38087,999,5244,0,-.155E-5,0
BEIDOU-2 G5,2012-008A,2026-07-10T03:37:13.232640,1.00269053,.00073577,3.6273,69.5549,271.1607,60.3662,0,U,38091,999,5259,0,.65E-6,0
MUOS-1,2012-009A,2026-07-10T05:15:07.212672,1.00272128,.00572109,5.5219,47.1262,3.2075,216.6340,0,U,38093,999,5267,0,-.122E-5,0
INTELSAT 22 (IS-22),2012-011A,2026-07-10T04:47:21.846624,1.00271096,.00018702,0.0350,65.2122,64.9902,301.8490,0,U,38098,999,741,0,0,0
APSTAR-7,2012-013A,2026-07-10T04:02:21.789600,1.00270317,.00029532,0.0145,42.5777,80.0091,302.6085,0,U,38107,999,5203,0,0,0
YAHSAT 1B,2012-016A,2026-07-10T04:12:38.411712,1.00273014,.00035432,0.0908,89.3088,42.3301,267.2177,0,U,38245,999,4583,0,.137E-5,0
AEHF-2 (USA 235),2012-019A,2026-07-10T01:54:38.798208,1.00272621,.00022201,6.7020,57.3175,50.8356,192.0112,0,U,38254,999,721,0,-.13E-5,0
JCSAT-13,2012-023A,2026-07-10T07:21:05.902848,1.00270200,.00028633,0.0164,30.0020,97.8191,34.6901,0,U,38331,999,5177,0,-.346E-5,0
VINASAT-2,2012-023B,2026-07-10T07:23:20.686848,1.00269676,.00021839,0.0198,332.9320,143.7092,54.2692,0,U,38332,999,4689,0,-.318E-5,0
NIMIQ 6,2012-026A,2026-07-10T06:19:41.788704,1.00271873,.00025885,0.0153,319.6077,151.9858,180.4127,0,U,38342,999,5064,0,-.163E-5,0
INTELSAT 19 (IS-19),2012-030A,2026-07-09T21:17:09.157056,1.00271536,.00031269,0.0177,25.6635,96.1223,291.3213,0,U,38356,999,5067,0,-.44E-6,0
ECHOSTAR 17,2012-035A,2026-07-10T07:25:47.656704,1.00270312,.0001965,0.0187,29.5690,76.2215,186.7925,0,U,38551,999,5129,0,-.65E-6,0
METEOSAT-10 (MSG-3),2012-035B,2026-07-10T06:45:46.789056,1.00269960,.00011148,4.7235,60.9019,19.3567,309.4606,0,U,38552,999,5108,0,-.1E-7,0
SES-5,2012-036A,2026-07-09T20:31:13.628640,1.00272424,.00020582,0.0450,319.9907,149.7218,130.8584,0,U,38652,999,4468,0,.46E-6,0
INTELSAT 20 (IS-20),2012-043A,2026-07-09T23:41:38.660064,1.00267370,.00033596,0.0436,68.8286,128.7460,154.2151,0,U,38740,999,5097,0,0,0
HYLAS 2,2012-043B,2026-07-10T07:30:20.513952,1.00272123,.00023453,2.4840,80.7859,52.9461,194.5127,0,U,38741,999,5100,0,-.249E-5,0
INTELSAT 21 (IS-21),2012-045A,2026-07-10T07:07:38.454240,1.00270243,.00016931,0.0271,34.8228,97.5479,204.7582,0,U,38749,999,5075,0,0,0
ASTRA 2F,2012-051A,2026-07-10T07:33:38.628288,1.00275111,.00028661,0.0569,243.5021,301.5582,244.8443,0,U,38778,999,4136,0,.161E-5,0
