PAKSAT-1R               
1 37779U 11042A   26191.28924491  .00000164  00000+0  00000+0 0  9998
2 37779   0.7461  84.3919 0003174 348.2143 357.7869  1.00265972 54700
SES-2                   
1 37809U 11049A   26191.29226594 -.00000185  00000+0  00000+0 0  9993
2 37809   0.1148  91.7654 0002722  19.4110 195.2588  1.00271377 54199
ARABSAT-5C              
1 37810U 11049B   26191.28569156  .00000134  00000+0  00000+0 0  9991
2 37810   0.0472   8.0239 0003438 116.8652 286.1691  1.00269295 54267
EUTELSAT 7 WEST A       
1 37816U 11051A   26191.33308481 -.00000050  00000+0  00000+0 0  9996
2 37816   0.0660 336.2710 0004570 149.0033 275.5785  1.00270460 54106
QUETZSAT 1              
1 37826U 11054A   26191.30808817 -.00000231  00000+0  00000+0 0  9996
2 37826   0.0117 342.6642 0002582 134.2235 205.2585  1.00272654 50101
INTELSAT 18 (IS-18)     
1 37834U 11056A   26191.17476771  .00000064  00000+0  00000+0 0  9995
2 37834   0.0299 278.7041 0001726 208.2780  44.0320  1.00273145 54048
EUTELSAT 16A            
1 37836U 11057A   26191.28491155  .00000115  00000+0  00000+0 0  9990
2 37836   0.0375   4.8107 0005819 100.8616 301.0849  1.00271938  7563
VIASAT-1                
1 37843U 11059A   26191.34355113  .00000000  00000+0  00000+0 0  9993
2 37843   0.0247  28.5908 0002063  84.8120 183.4359  1.00270107 47558
ASIASAT 7               
1 37933U 11069A   26191.30259164 -.00000323  00000+0  00000+0 0  9998
2 37933   0.0182  25.9693 0001248  55.0287  61.6450  1.00275331 45096
BEIDOU-2 IGSO-5         
1 37948U 11073A   26183.72937883 -.00000128  00000+0  00000+0 0  9990
2 37948  47.6496 271.3544 0114527 222.0502 141.5350  1.00270596 53296
LUCH-5A                 
1 37951U 11074B   26190.88708487 -.00000046  00000+0  00000+0 0  9995
2 37951   8.8083  73.4735 0002566  57.5000 283.1588  1.00272587 53273
NIGCOMSAT 1R            
1 38014U 11077A   26191.21885022  .00000156  00000+0  00000+0 0  9999
2 38014   0.0298 151.8812 0002340 193.1596  64.4059  1.00274441 53184
WGS F4 (USA 233)        
1 38070U 12003A   26191.29912495  .00000000  00000+0  00000+0 0  9992
2 38070   0.0261  36.3888 0000995 122.7529 325.1769  1.00271613 44389
SES-4                   
1 38087U 12007A   26190.35062406 -.00000155  00000+0  00000+0 0  9990
2 38087   0.0194  57.5233 0002339  48.9346 285.0553  1.00269202 52443
BEIDOU-2 G5             
1 38091U 12008A   26191.15084760  .00000065  00000+0  00000+0 0  9991
2 38091   3.6273  69.5549 0007357 271.1607  60.3662  1.00269053 52598
MUOS-1                  
1 38093U 12009A   26191.21883348 -.00000122  00000+0  00000+0 0  9995
2 38093   5.5219  47.1262 0057210   3.2075 216.6340  1.00272128 52676
INTELSAT 22 (IS-22)     
1 38098U 12011A   26191.19955841  .00000000  00000+0  00000+0 0  9992
2 38098   0.0350  65.2122 0001870  64.9902 301.8490  1.00271096  7415
APSTAR-7                
1 38107U 12013A   26191.16830775  .00000000  00000+0  00000+0 0  9990
2 38107   0.0145  42.5777 0002953  80.0091 302.6085  1.00270317 52035
YAHSAT 1B               
1 38245U 12016A   26191.17544458  .00000137  00000+0  00000+0 0  9998
2 38245   0.0908  89.3088 0003543  42.3301 267.2177  1.00273014 45835
AEHF-2 (USA 235)        
1 38254U 12019A   26191.07961572 -.00000130  00000+0  00000+0 0  9994
2 38254   6.7020  57.3175 0002220  50.8356 192.0112  1.00272621  7217
JCSAT-13                
1 38331U 12023A   26191.30631832 -.00000346  00000+0  00000+0 0  9993
2 38331   0.0164  30.0020 0002863  97.8191  34.6901  1.00270200 51775
VINASAT-2               
1 38332U 12023B   26191.30787832 -.00000318  00000+0  00000+0 0  9995
2 38332   0.0198 332.9320 0002183 143.7092  54.2692  1.00269676 46893
NIMIQ 6                 
1 38342U 12026A   26191.26367811 -.00000163  00000+0  00000+0 0  9993
2 38342   0.0153 319.6077 0002588 151.9858 180.4127  1.00271873 50641
INTELSAT 19 (IS-19)     
1 38356U 12030A   26190.88691154 -.00000044  00000+0  00000+0 0  9998
2 38356   0.0177  25.6635 0003126  96.1223 291.3213  1.00271536 50678
ECHOSTAR 17             
1 38551U 12035A   26191.30957936 -.00000065  00000+0  00000+0 0  9994
2 38551   0.0187  29.5690 0001965  76.2215 186.7925  1.00270312 51296
METEOSAT-10 (MSG-3)     
1 38552U 12035B   26191.28179154 -.00000001  00000+0  00000+0 0  9990
2 38552   4.7235  60.9019 0001114  19.3567 309.4606  1.00269960 51084
SES-5                   
1 38652U 12036A   26190.85501885  .00000046  00000+0  00000+0 0  9992
2 38652   0.0450 319.9907 0002058 149.7218 130.8584  1.00272424 44683
INTELSAT 20 (IS-20)     
1 38740U 12043A   26190.98725301  .00000000  00000+0  00000+0 0  9993
2 38740   0.0436  68.8286 0003359 128.7460 154.2151  1.00267370 50979
HYLAS 2                 
1 38741U 12043B   26191.31273743 -.00000249  00000+0  00000+0 0  9996
2 38741   2.4840  80.7859 0002345  52.9461 194.5127  1.00272123 51004
INTELSAT 21 (IS-21)     
1 38749U 12045A   26191.29697285  .00000000  00000+0  00000+0 0  9998
2 38749   0.0271  34.8228 0001693  97.5479 204.7582  1.00270243 50754
ASTRA 2F                
1 38778U 12051A   26191.31503042  .00000161  00000+0  00000+0 0  9995
2 38778   0.0569 243.5021 0002866 301.5582 244.8443  1.00275111 41369
